LEMUR-2-CHANTAL
1 47529U 21006DV  24003.15052063  .00037331  00000-0  83028-3 0  9998
2 47529  97.3596  66.3473 0005090  87.3020 272.8810 15.43550451164339
